<?xml version="1.0" encoding="UTF-8"?>
<ndm xmlns:xsi="http://www.w3.org/2001/XMLSchema-instance" xsi:noNamespaceSchemaLocation="https://sanaregistry.org/r/ndmxml_unqualified/ndmxml-2.0.0-master-2.0.xsd">
<omm id="CCSDS_OMM_VERS" version="2.0">
<header><CREATION_DATE/><ORIGINATOR/></header><body><segment><metadata><OBJECT_NAME>IRIDIUM 57 [-]</OBJECT_NAME><OBJECT_ID>1998-019B</OBJECT_ID><CENTER_NAME>EARTH</CENTER_NAME><REF_FRAME>TEME</REF_FRAME><TIME_SYSTEM>UTC</TIME_SYSTEM><MEAN_ELEMENT_THEORY>SGP4</MEAN_ELEMENT_THEORY></metadata><data><meanElements><EPOCH>2024-01-20T11:54:11.303424</EPOCH><MEAN_MOTION>14.35052409</MEAN_MOTION><ECCENTRICITY>.0002189</ECCENTRICITY><INCLINATION>86.3975</INCLINATION><RA_OF_ASC_NODE>0.3791</RA_OF_ASC_NODE><ARG_OF_PERICENTER>87.0779</ARG_OF_PERICENTER><MEAN_ANOMALY>273.0668</MEAN_ANOMALY></meanElements><tleParameters><EPHEMERIS_TYPE>0</EPHEMERIS_TYPE><CLASSIFICATION_TYPE>U</CLASSIFICATION_TYPE><NORAD_CAT_ID>25273</NORAD_CAT_ID><ELEMENT_SET_NO>999</ELEMENT_SET_NO><REV_AT_EPOCH>35109</REV_AT_EPOCH><BSTAR>.22251E-3</BSTAR><MEAN_MOTION_DOT>.653E-5</MEAN_MOTION_DOT><MEAN_MOTION_DDOT>0</MEAN_MOTION_DDOT></tleParameters></data></segment></body></omm>
<omm id="CCSDS_OMM_VERS" version="2.0">
<header><CREATION_DATE/><ORIGINATOR/></header><body><segment><metadata><OBJECT_NAME>IRIDIUM 63 [-]</OBJECT_NAME><OBJECT_ID>1998-021B</OBJECT_ID><CENTER_NAME>EARTH</CENTER_NAME><REF_FRAME>TEME</REF_FRAME><TIME_SYSTEM>UTC</TIME_SYSTEM><MEAN_ELEMENT_THEORY>SGP4</MEAN_ELEMENT_THEORY></metadata><data><meanElements><EPOCH>2024-01-20T07:06:04.814784</EPOCH><MEAN_MOTION>14.35574864</MEAN_MOTION><ECCENTRICITY>.0002254</ECCENTRICITY><INCLINATION>86.3992</INCLINATION><RA_OF_ASC_NODE>297.3993</RA_OF_ASC_NODE><ARG_OF_PERICENTER>89.6712</ARG_OF_PERICENTER><MEAN_ANOMALY>270.4743</MEAN_ANOMALY></meanElements><tleParameters><EPHEMERIS_TYPE>0</EPHEMERIS_TYPE><CLASSIFICATION_TYPE>U</CLASSIFICATION_TYPE><NORAD_CAT_ID>25286</NORAD_CAT_ID><ELEMENT_SET_NO>999</ELEMENT_SET_NO><REV_AT_EPOCH>35009</REV_AT_EPOCH><BSTAR>.25389E-3</BSTAR><MEAN_MOTION_DOT>.75E-5</MEAN_MOTION_DOT><MEAN_MOTION_DDOT>0</MEAN_MOTION_DDOT></tleParameters></data></segment></body></omm>
<omm id="CCSDS_OMM_VERS" version="2.0">
<header><CREATION_DATE/><ORIGINATOR/></header><body><segment><metadata><OBJECT_NAME>IRIDIUM 69 [-]</OBJECT_NAME><OBJECT_ID>1998-026A</OBJECT_ID><CENTER_NAME>EARTH</CENTER_NAME><REF_FRAME>TEME</REF_FRAME><TIME_SYSTEM>UTC</TIME_SYSTEM><MEAN_ELEMENT_THEORY>SGP4</MEAN_ELEMENT_THEORY></metadata><data><meanElements><EPOCH>2024-01-20T19:10:46.377696</EPOCH><MEAN_MOTION>14.39761438</MEAN_MOTION><ECCENTRICITY>.0000417</ECCENTRICITY><INCLINATION>86.4003</INCLINATION><RA_OF_ASC_NODE>312.0145</RA_OF_ASC_NODE><ARG_OF_PERICENTER>344.3434</ARG_OF_PERICENTER><MEAN_ANOMALY>15.7752</MEAN_ANOMALY></meanElements><tleParameters><EPHEMERIS_TYPE>0</EPHEMERIS_TYPE><CLASSIFICATION_TYPE>U</CLASSIFICATION_TYPE><NORAD_CAT_ID>25319</NORAD_CAT_ID><ELEMENT_SET_NO>999</ELEMENT_SET_NO><REV_AT_EPOCH>34940</REV_AT_EPOCH><BSTAR>.32686E-3</BSTAR><MEAN_MOTION_DOT>.1043E-4</MEAN_MOTION_DOT><MEAN_MOTION_DDOT>0</MEAN_MOTION_DDOT></tleParameters></data></segment></body></omm>
<omm id="CCSDS_OMM_VERS" version="2.0">
<header><CREATION_DATE/><ORIGINATOR/></header><body><segment><metadata><OBJECT_NAME>IRIDIUM 71 [-]</OBJECT_NAME><OBJECT_ID>1998-026B</OBJECT_ID><CENTER_NAME>EARTH</CENTER_NAME><REF_FRAME>TEME</REF_FRAME><TIME_SYSTEM>UTC</TIME_SYSTEM><MEAN_ELEMENT_THEORY>SGP4</MEAN_ELEMENT_THEORY></metadata><data><meanElements><EPOCH>2024-01-20T08:18:00.826560</EPOCH><MEAN_MOTION>14.40085624</MEAN_MOTION><ECCENTRICITY>.0002664</ECCENTRICITY><INCLINATION>86.3993</INCLINATION><RA_OF_ASC_NODE>307.0042</RA_OF_ASC_NODE><ARG_OF_PERICENTER>33.9865</ARG_OF_PERICENTER><MEAN_ANOMALY>326.1504</MEAN_ANOMALY></meanElements><tleParameters><EPHEMERIS_TYPE>0</EPHEMERIS_TYPE><CLASSIFICATION_TYPE>U</CLASSIFICATION_TYPE><NORAD_CAT_ID>25320</NORAD_CAT_ID><ELEMENT_SET_NO>999</ELEMENT_SET_NO><REV_AT_EPOCH>34961</REV_AT_EPOCH><BSTAR>.27455E-3</BSTAR><MEAN_MOTION_DOT>.885E-5</MEAN_MOTION_DOT><MEAN_MOTION_DDOT>0</MEAN_MOTION_DDOT></tleParameters></data></segment></body></omm>
<omm id="CCSDS_OMM_VERS" version="2.0">
<header><CREATION_DATE/><ORIGINATOR/></header><body><segment><metadata><OBJECT_NAME>IRIDIUM 73 [-]</OBJECT_NAME><OBJECT_ID>1998-032C</OBJECT_ID><CENTER_NAME>EARTH</CENTER_NAME><REF_FRAME>TEME</REF_FRAME><TIME_SYSTEM>UTC</TIME_SYSTEM><MEAN_ELEMENT_THEORY>SGP4</MEAN_ELEMENT_THEORY></metadata><data><meanElements><EPOCH>2024-01-20T15:02:26.676096</EPOCH><MEAN_MOTION>14.50252869</MEAN_MOTION><ECCENTRICITY>.0001502</ECCENTRICITY><INCLINATION>86.4403</INCLINATION><RA_OF_ASC_NODE>264.5288</RA_OF_ASC_NODE><ARG_OF_PERICENTER>78.9124</ARG_OF_PERICENTER><MEAN_ANOMALY>281.2249</MEAN_ANOMALY></meanElements><tleParameters><EPHEMERIS_TYPE>0</EPHEMERIS_TYPE><CLASSIFICATION_TYPE>U</CLASSIFICATION_TYPE><NORAD_CAT_ID>25344</NORAD_CAT_ID><ELEMENT_SET_NO>999</ELEMENT_SET_NO><REV_AT_EPOCH>35609</REV_AT_EPOCH><BSTAR>.23785E-3</BSTAR><MEAN_MOTION_DOT>.946E-5</MEAN_MOTION_DOT><MEAN_MOTION_DDOT>0</MEAN_MOTION_DDOT></tleParameters></data></segment></body></omm>
<omm id="CCSDS_OMM_VERS" version="2.0">
<header><CREATION_DATE/><ORIGINATOR/></header><body><segment><metadata><OBJECT_NAME>IRIDIUM 82 [-]</OBJECT_NAME><OBJECT_ID>1998-051A</OBJECT_ID><CENTER_NAME>EARTH</CENTER_NAME><REF_FRAME>TEME</REF_FRAME><TIME_SYSTEM>UTC</TIME_SYSTEM><MEAN_ELEMENT_THEORY>SGP4</MEAN_ELEMENT_THEORY></metadata><data><meanElements><EPOCH>2024-01-20T10:20:44.792736</EPOCH><MEAN_MOTION>15.05448685</MEAN_MOTION><ECCENTRICITY>.0141724</ECCENTRICITY><INCLINATION>86.3954</INCLINATION><RA_OF_ASC_NODE>355.9757</RA_OF_ASC_NODE><ARG_OF_PERICENTER>46.1825</ARG_OF_PERICENTER><MEAN_ANOMALY>315.1025</MEAN_ANOMALY></meanElements><tleParameters><EPHEMERIS_TYPE>0</EPHEMERIS_TYPE><CLASSIFICATION_TYPE>U</CLASSIFICATION_TYPE><NORAD_CAT_ID>25467</NORAD_CAT_ID><ELEMENT_SET_NO>999</ELEMENT_SET_NO><REV_AT_EPOCH>34607</REV_AT_EPOCH><BSTAR>.10457E-2</BSTAR><MEAN_MOTION_DOT>.18901E-3</MEAN_MOTION_DOT><MEAN_MOTION_DDOT>0</MEAN_MOTION_DDOT></tleParameters></data></segment></body></omm>
<omm id="CCSDS_OMM_VERS" version="2.0">
<header><CREATION_DATE/><ORIGINATOR/></header><body><segment><metadata><OBJECT_NAME>IRIDIUM 2 [-]</OBJECT_NAME><OBJECT_ID>1998-066A</OBJECT_ID><CENTER_NAME>EARTH</CENTER_NAME><REF_FRAME>TEME</REF_FRAME><TIME_SYSTEM>UTC</TIME_SYSTEM><MEAN_ELEMENT_THEORY>SGP4</MEAN_ELEMENT_THEORY></metadata><data><meanElements><EPOCH>2024-01-20T13:28:30.947520</EPOCH><MEAN_MOTION>15.51509032</MEAN_MOTION><ECCENTRICITY>.0005844</ECCENTRICITY><INCLINATION>85.5143</INCLINATION><RA_OF_ASC_NODE>38.0969</RA_OF_ASC_NODE><ARG_OF_PERICENTER>135.1950</ARG_OF_PERICENTER><MEAN_ANOMALY>224.9781</MEAN_ANOMALY></meanElements><tleParameters><EPHEMERIS_TYPE>0</EPHEMERIS_TYPE><CLASSIFICATION_TYPE>U</CLASSIFICATION_TYPE><NORAD_CAT_ID>25527</NORAD_CAT_ID><ELEMENT_SET_NO>999</ELEMENT_SET_NO><REV_AT_EPOCH>38466</REV_AT_EPOCH><BSTAR>.9346E-3</BSTAR><MEAN_MOTION_DOT>.55567E-3</MEAN_MOTION_DOT><MEAN_MOTION_DDOT>0</MEAN_MOTION_DDOT></tleParameters></data></segment></body></omm>
</ndm>
