IRIDIUM 57 [-]          
1 25273U 98019B   24020.49596416  .00000653  00000+0  22251-3 0  9996
2 25273  86.3975   0.3791 0002189  87.0779 273.0668 14.35052409351090
IRIDIUM 63 [-]          
1 25286U 98021B   24020.29588906  .00000750  00000+0  25389-3 0  9999
2 25286  86.3992 297.3993 0002254  89.6712 270.4743 14.35574864350091
IRIDIUM 69 [-]          
1 25319U 98026A   24020.79914789  .00001043  00000+0  32686-3 0  9992
2 25319  86.4003 312.0145 0000417 344.3434  15.7752 14.39761438349409
IRIDIUM 71 [-]          
1 25320U 98026B   24020.34584290  .00000885  00000+0  27455-3 0  9996
2 25320  86.3993 307.0042 0002664  33.9865 326.1504 14.40085624349618
IRIDIUM 73 [-]          
1 25344U 98032C   24020.62669764  .00000946  00000+0  23785-3 0  9990
2 25344  86.4403 264.5288 0001502  78.9124 281.2249 14.50252869356092
IRIDIUM 82 [-]          
1 25467U 98051A   24020.43107399  .00018901  00000+0  10457-2 0  9998
2 25467  86.3954 355.9757 0141724  46.1825 315.1025 15.05448685346070
IRIDIUM 2 [-]           
1 25527U 98066A   24020.56146930  .00055567  00000+0  93460-3 0  9994
2 25527  85.5143  38.0969 0005844 135.1950 224.9781 15.51509032384660
